HAWK-7B                 
1 56193U 23054R   26204.20472219  .00005452  00000+0  20413-3 0  9997
2 56193  97.2682  88.9021 0000445 353.8356   6.2878 15.27695661182521
HAWK-7C                 
1 56200U 23054Y   26204.20459575  .00005368  00000+0  20104-3 0  9999
2 56200  97.2656  89.6598 0000329 252.4022 107.7182 15.27694220182528
HAWK-8A                 
1 59443U 24066B   26204.02750374  .00001039  00000+0  10247-3 0  9994
2 59443  45.5992  91.3150 0003467 250.1701 109.8806 14.99297562125213
HAWK-8B                 
1 59445U 24066D   26204.09461208  .00000678  00000+0  73361-4 0  9993
2 59445  45.6170  92.9626 0003663 254.3744 105.6733 14.99296385125215
HAWK-9A                 
1 59446U 24066E   26204.05117031  .00001172  00000+0  11344-3 0  9994
2 59446  45.6102  91.8504 0003348 238.8775 121.1778 14.99233013125216
HAWK-9C                 
1 59448U 24066G   26204.25134407  .00001317  00000+0  12516-3 0  9997
2 59448  45.6073  89.9124 0003296 226.7309 133.3297 14.99233425125243
HAWK-8C                 
1 59449U 24066H   26204.09405841  .00001041  00000+0  10265-3 0  9996
2 59449  45.6082  91.9762 0003054 257.9792 102.0747 14.99295020125218
HAWK-9B                 
1 59450U 24066J   26204.11812861  .00001346  00000+0  12754-3 0  9998
2 59450  45.6125  92.4421 0003597 222.6722 137.3880 14.99229875125225
HAWK-10A                
1 60540U 24149CA  26204.14095866  .00001237  00000+0  11361-3 0  9995
2 60540  97.6874 279.4340 0002316 330.1076  30.0013 14.96603782105367
HAWK-10B                
1 60545U 24149CF  26204.14082542  .00001251  00000+0  11489-3 0  9994
2 60545  97.6794 278.7524 0004537 346.8697  13.2406 14.96603160105368
HAWK-10C                
1 60575U 24149DM  26204.14117150  .00001446  00000+0  13201-3 0  9991
2 60575  97.6714 278.0548 0001903 311.9285  48.1774 14.96603523105360
HAWK-11B                
1 62379U 24247C   26204.06693637  .00005876  00000+0  20397-3 0  9999
2 62379  45.0157  93.0139 0002306  82.7907 277.3240 15.30743655 88505
HAWK-11C                
1 62381U 24247E   26203.93597801  .00006729  00000+0  23208-3 0  9995
2 62381  45.0047  93.0543 0003076  63.0682 297.0516 15.30743194 88482
HAWK-11A                
1 62382U 24247F   26204.06659518  .00007168  00000+0  24652-3 0  9997
2 62382  44.9942  91.6590 0002522  64.1680 295.9464 15.30743368 88501
HAWK-12C                
1 64621U 25138A   26202.44422035  .00003049  00000+0  15101-3 0  9990
2 64621  97.4360 204.3124 0014746  31.0884 329.1220 15.18436833 59063
HAWK-12B                
1 64622U 25138B   26202.44439584  .00003054  00000+0  15135-3 0  9991
2 64622  97.4484 205.0160 0013596  27.1854 333.0089 15.18436117 59066
