{"fetched_at":"2026-07-23T17:55:32.609Z","source":"https://celestrak.org/NORAD/elements/gp.php?NAME=HAWK&FORMAT=JSON","constellation":"hawkeye-360","records":[{"OBJECT_NAME":"HAWK-7B","OBJECT_ID":"2023-054R","EPOCH":"2026-07-23T04:54:47.997216","CLASSIFICATION_TYPE":"U","MEAN_MOTION":15.27695661,"ECCENTRICITY":0.00004456,"INCLINATION":97.2682,"RA_OF_ASC_NODE":88.9021,"ARG_OF_PERICENTER":353.8356,"MEAN_ANOMALY":6.2878,"EPHEMERIS_TYPE":0,"NORAD_CAT_ID":56193,"ELEMENT_SET_NO":999,"REV_AT_EPOCH":18252,"BSTAR":0.00020413432,"MEAN_MOTION_DOT":0.00005452,"MEAN_MOTION_DDOT":0},{"OBJECT_NAME":"HAWK-7C","OBJECT_ID":"2023-054Y","EPOCH":"2026-07-23T04:54:37.072800","CLASSIFICATION_TYPE":"U","MEAN_MOTION":15.2769422,"ECCENTRICITY":0.00003291,"INCLINATION":97.2656,"RA_OF_ASC_NODE":89.6598,"ARG_OF_PERICENTER":252.4022,"MEAN_ANOMALY":107.7182,"EPHEMERIS_TYPE":0,"NORAD_CAT_ID":56200,"ELEMENT_SET_NO":999,"REV_AT_EPOCH":18252,"BSTAR":0.00020103875,"MEAN_MOTION_DOT":0.00005368,"MEAN_MOTION_DDOT":0},{"OBJECT_NAME":"HAWK-8A","OBJECT_ID":"2024-066B","EPOCH":"2026-07-23T00:39:36.323136","CLASSIFICATION_TYPE":"U","MEAN_MOTION":14.99297562,"ECCENTRICITY":0.00034678,"INCLINATION":45.5992,"RA_OF_ASC_NODE":91.315,"ARG_OF_PERICENTER":250.1701,"MEAN_ANOMALY":109.8806,"EPHEMERIS_TYPE":0,"NORAD_CAT_ID":59443,"ELEMENT_SET_NO":999,"REV_AT_EPOCH":12521,"BSTAR":0.00010247103,"MEAN_MOTION_DOT":0.00001039,"MEAN_MOTION_DDOT":0},{"OBJECT_NAME":"HAWK-8B","OBJECT_ID":"2024-066D","EPOCH":"2026-07-23T02:16:14.483712","CLASSIFICATION_TYPE":"U","MEAN_MOTION":14.99296385,"ECCENTRICITY":0.00036635,"INCLINATION":45.617,"RA_OF_ASC_NODE":92.9626,"ARG_OF_PERICENTER":254.3744,"MEAN_ANOMALY":105.6733,"EPHEMERIS_TYPE":0,"NORAD_CAT_ID":59445,"ELEMENT_SET_NO":999,"REV_AT_EPOCH":12521,"BSTAR":0.000073361077,"MEAN_MOTION_DOT":0.00000678,"MEAN_MOTION_DDOT":0},{"OBJECT_NAME":"HAWK-9A","OBJECT_ID":"2024-066E","EPOCH":"2026-07-23T01:13:41.114784","CLASSIFICATION_TYPE":"U","MEAN_MOTION":14.99233013,"ECCENTRICITY":0.0003348,"INCLINATION":45.6102,"RA_OF_ASC_NODE":91.8504,"ARG_OF_PERICENTER":238.8775,"MEAN_ANOMALY":121.1778,"EPHEMERIS_TYPE":0,"NORAD_CAT_ID":59446,"ELEMENT_SET_NO":999,"REV_AT_EPOCH":12521,"BSTAR":0.00011343891,"MEAN_MOTION_DOT":0.00001172,"MEAN_MOTION_DDOT":0},{"OBJECT_NAME":"HAWK-9C","OBJECT_ID":"2024-066G","EPOCH":"2026-07-23T06:01:56.127648","CLASSIFICATION_TYPE":"U","MEAN_MOTION":14.99233425,"ECCENTRICITY":0.00032967,"INCLINATION":45.6073,"RA_OF_ASC_NODE":89.9124,"ARG_OF_PERICENTER":226.7309,"MEAN_ANOMALY":133.3297,"EPHEMERIS_TYPE":0,"NORAD_CAT_ID":59448,"ELEMENT_SET_NO":999,"REV_AT_EPOCH":12524,"BSTAR":0.00012515533,"MEAN_MOTION_DOT":0.00001317,"MEAN_MOTION_DDOT":0},{"OBJECT_NAME":"HAWK-8C","OBJECT_ID":"2024-066H","EPOCH":"2026-07-23T02:15:26.646624","CLASSIFICATION_TYPE":"U","MEAN_MOTION":14.9929502,"ECCENTRICITY":0.00030543,"INCLINATION":45.6082,"RA_OF_ASC_NODE":91.9762,"ARG_OF_PERICENTER":257.9792,"MEAN_ANOMALY":102.0747,"EPHEMERIS_TYPE":0,"NORAD_CAT_ID":59449,"ELEMENT_SET_NO":999,"REV_AT_EPOCH":12521,"BSTAR":0.00010265016,"MEAN_MOTION_DOT":0.00001041,"MEAN_MOTION_DDOT":0},{"OBJECT_NAME":"HAWK-9B","OBJECT_ID":"2024-066J","EPOCH":"2026-07-23T02:50:06.311904","CLASSIFICATION_TYPE":"U","MEAN_MOTION":14.99229875,"ECCENTRICITY":0.00035972,"INCLINATION":45.6125,"RA_OF_ASC_NODE":92.4421,"ARG_OF_PERICENTER":222.6722,"MEAN_ANOMALY":137.388,"EPHEMERIS_TYPE":0,"NORAD_CAT_ID":59450,"ELEMENT_SET_NO":999,"REV_AT_EPOCH":12522,"BSTAR":0.00012754272,"MEAN_MOTION_DOT":0.00001346,"MEAN_MOTION_DDOT":0},{"OBJECT_NAME":"HAWK-10A","OBJECT_ID":"2024-149CA","EPOCH":"2026-07-23T03:22:58.828224","CLASSIFICATION_TYPE":"U","MEAN_MOTION":14.96603782,"ECCENTRICITY":0.00023168,"INCLINATION":97.6874,"RA_OF_ASC_NODE":279.434,"ARG_OF_PERICENTER":330.1076,"MEAN_ANOMALY":30.0013,"EPHEMERIS_TYPE":0,"NORAD_CAT_ID":60540,"ELEMENT_SET_NO":999,"REV_AT_EPOCH":10536,"BSTAR":0.00011361265,"MEAN_MOTION_DOT":0.00001237,"MEAN_MOTION_DDOT":0},{"OBJECT_NAME":"HAWK-10B","OBJECT_ID":"2024-149CF","EPOCH":"2026-07-23T03:22:47.316288","CLASSIFICATION_TYPE":"U","MEAN_MOTION":14.9660316,"ECCENTRICITY":0.00045377,"INCLINATION":97.6794,"RA_OF_ASC_NODE":278.7524,"ARG_OF_PERICENTER":346.8697,"MEAN_ANOMALY":13.2406,"EPHEMERIS_TYPE":0,"NORAD_CAT_ID":60545,"ELEMENT_SET_NO":999,"REV_AT_EPOCH":10536,"BSTAR":0.00011489082,"MEAN_MOTION_DOT":0.00001251,"MEAN_MOTION_DDOT":0},{"OBJECT_NAME":"HAWK-10C","OBJECT_ID":"2024-149DM","EPOCH":"2026-07-23T03:23:17.217600","CLASSIFICATION_TYPE":"U","MEAN_MOTION":14.96603523,"ECCENTRICITY":0.00019031,"INCLINATION":97.6714,"RA_OF_ASC_NODE":278.0548,"ARG_OF_PERICENTER":311.9285,"MEAN_ANOMALY":48.1774,"EPHEMERIS_TYPE":0,"NORAD_CAT_ID":60575,"ELEMENT_SET_NO":999,"REV_AT_EPOCH":10536,"BSTAR":0.00013201243,"MEAN_MOTION_DOT":0.00001446,"MEAN_MOTION_DDOT":0},{"OBJECT_NAME":"HAWK-11B","OBJECT_ID":"2024-247C","EPOCH":"2026-07-23T01:36:23.302368","CLASSIFICATION_TYPE":"U","MEAN_MOTION":15.30743655,"ECCENTRICITY":0.0002306,"INCLINATION":45.0157,"RA_OF_ASC_NODE":93.0139,"ARG_OF_PERICENTER":82.7907,"MEAN_ANOMALY":277.324,"EPHEMERIS_TYPE":0,"NORAD_CAT_ID":62379,"ELEMENT_SET_NO":999,"REV_AT_EPOCH":8850,"BSTAR":0.00020397067,"MEAN_MOTION_DOT":0.00005876,"MEAN_MOTION_DDOT":0},{"OBJECT_NAME":"HAWK-11C","OBJECT_ID":"2024-247E","EPOCH":"2026-07-22T22:27:48.500064","CLASSIFICATION_TYPE":"U","MEAN_MOTION":15.30743194,"ECCENTRICITY":0.00030769,"INCLINATION":45.0047,"RA_OF_ASC_NODE":93.0543,"ARG_OF_PERICENTER":63.0682,"MEAN_ANOMALY":297.0516,"EPHEMERIS_TYPE":0,"NORAD_CAT_ID":62381,"ELEMENT_SET_NO":999,"REV_AT_EPOCH":8848,"BSTAR":0.0002320799,"MEAN_MOTION_DOT":0.00006729,"MEAN_MOTION_DDOT":0},{"OBJECT_NAME":"HAWK-11A","OBJECT_ID":"2024-247F","EPOCH":"2026-07-23T01:35:53.823552","CLASSIFICATION_TYPE":"U","MEAN_MOTION":15.30743368,"ECCENTRICITY":0.00025222,"INCLINATION":44.9942,"RA_OF_ASC_NODE":91.659,"ARG_OF_PERICENTER":64.168,"MEAN_ANOMALY":295.9464,"EPHEMERIS_TYPE":0,"NORAD_CAT_ID":62382,"ELEMENT_SET_NO":999,"REV_AT_EPOCH":8850,"BSTAR":0.00024652178,"MEAN_MOTION_DOT":0.00007168,"MEAN_MOTION_DDOT":0},{"OBJECT_NAME":"HAWK-12C","OBJECT_ID":"2025-138A","EPOCH":"2026-07-21T10:39:40.638240","CLASSIFICATION_TYPE":"U","MEAN_MOTION":15.18436833,"ECCENTRICITY":0.00147465,"INCLINATION":97.436,"RA_OF_ASC_NODE":204.3124,"ARG_OF_PERICENTER":31.0884,"MEAN_ANOMALY":329.122,"EPHEMERIS_TYPE":0,"NORAD_CAT_ID":64621,"ELEMENT_SET_NO":999,"REV_AT_EPOCH":5906,"BSTAR":0.00015100994,"MEAN_MOTION_DOT":0.00003049,"MEAN_MOTION_DDOT":0},{"OBJECT_NAME":"HAWK-12B","OBJECT_ID":"2025-138B","EPOCH":"2026-07-21T10:39:55.800576","CLASSIFICATION_TYPE":"U","MEAN_MOTION":15.18436117,"ECCENTRICITY":0.00135965,"INCLINATION":97.4484,"RA_OF_ASC_NODE":205.016,"ARG_OF_PERICENTER":27.1854,"MEAN_ANOMALY":333.0089,"EPHEMERIS_TYPE":0,"NORAD_CAT_ID":64622,"ELEMENT_SET_NO":999,"REV_AT_EPOCH":5906,"BSTAR":0.00015134503,"MEAN_MOTION_DOT":0.00003054,"MEAN_MOTION_DDOT":0}]}
